STARLINK-1197           
1 45199U 20012X   20253.58334491 -.00027610  00000-0 -18821-2 0  9992
2 45199  52.9992  36.8694 0001210 102.8754 137.1579 15.05601168 31665
STARLINK-1198           
1 45200U 20012Y   20253.58334491 -.00033073  00000-0 -22612-2 0  9998
2 45200  53.0002  36.8704 0001349 116.0461 106.1017 15.05581015 31660
STARLINK-1199           
1 45201U 20012Z   20253.58334491 -.00028792  00000-0 -19636-2 0  9993
2 45201  52.9999  36.8690 0001147 113.1848  90.8631 15.05605190 31663
STARLINK-1203           
1 45202U 20012AA  20253.44997880  .00001057  00000-0  91164-4 0  9997
2 45202  52.9841  57.2434 0002037  84.9331 275.1889 15.05814955 31398
STARLINK-1204           
1 45203U 20012AB  20253.58334491 -.00034032  00000-0 -23266-2 0  9993
2 45203  53.0008  36.8689 0001327 111.4414 344.6840 15.05597800 31644
STARLINK-1206           
1 45204U 20012AC  20253.58334491 -.00033802  00000-0 -23073-2 0  9994
2 45204  53.0001  36.8669 0001385 109.5908 292.4633 15.05652054 31672
STARLINK-1208           
1 45205U 20012AD  20253.25001157  .00049518  00000-0  33953-2 0  9996
2 45205  52.9997  38.3622 0001382 114.2377 172.0776 15.05564897  1755
STARLINK-1209           
1 45206U 20012AE  20253.25001157  .00042743  00000-0  29369-2 0  9996
2 45206  53.0007  18.3645 0001464 106.4877 326.0440 15.05555098 31881
STARLINK-1210           
1 45207U 20012AF  20253.58334491 -.00029758  00000-0 -20308-2 0  9990
2 45207  53.0006  36.8694 0001396 105.6067  80.4293 15.05597054 31667
STARLINK-1211           
1 45208U 20012AG  20253.58334491 -.00031854  00000-0 -21752-2 0  9995
2 45208  53.0011  36.8683 0001227 115.0572  35.0171 15.05608726 31661
STARLINK-1218           
1 45209U 20012AH  20253.25001157  .00039781  00000-0  27352-2 0  9997
2 45209  53.0004  38.3627 0001286 117.7254 240.6194 15.05564695 31621
STARLINK-1219           
1 45210U 20012AJ  20253.58334491 -.00030649  00000-0 -20927-2 0  9992
2 45210  52.9995  36.8689 0001405 106.0753  61.9575 15.05592271 31661
STARLINK-1231           
1 45212U 20012AL  20253.25001157  .00039317  00000-0  27035-2 0  9994
2 45212  53.0007  38.3611 0001196 118.6160 203.7224 15.05567455 31628
STARLINK-1232           
1 45213U 20012AM  20253.25001157  .00073077  00000-0  49861-2 0  9997
2 45213  52.9987  38.3625 0001319 108.2095 196.0963 15.05555868 31627
STARLINK-1233           
1 45214U 20012AN  20253.25001157 -.00008592  00000-0 -57098-3 0  9992
2 45214  52.9993  38.3654 0001412 111.8238 354.5583 15.05595569  1763
STARLINK-1245           
1 45215U 20012AP  20253.25001157  .00035099  00000-0  24175-2 0  9992
2 45215  53.0010  38.3626 0001271 116.3698   7.9659 15.05558441  1758
STARLINK-1254           
1 45216U 20012AQ  20253.25001157  .00039863  00000-0  27409-2 0  9999
2 45216  52.9995  38.3631 0001299 120.9687 219.3792 15.05562437  1751
STARLINK-1271           
1 45217U 20012AR  20253.25001157  .00049658  00000-0  34045-2 0  9997
2 45217  53.0003  38.3634 0001556 109.0899 159.2064 15.05567657  1759
STARLINK-1105           
1 45218U 20012AS  20253.58334491 -.00027059  00000-0 -18450-2 0  9999
2 45218  53.0019  16.8657 0001251 109.9382 276.2630 15.05580982 31951
STARLINK-1187           
1 45219U 20012AT  20253.25001157  .00035548  00000-0  24472-2 0  9995
2 45219  52.9993  18.3617 0001151 135.9302  80.5939 15.05571165 31898
STARLINK-1188           
1 45220U 20012AU  20253.25001157  .00034980  00000-0  24101-2 0  9995
2 45220  53.0003  18.3597 0001123 115.6054  64.9254 15.05547700 31893
STARLINK-1189           
1 45221U 20012AV  20253.25001157  .00035191  00000-0  24236-2 0  9990
2 45221  53.0001  18.3596 0001247  98.7606  99.7442 15.05560711  1756
STARLINK-1191           
1 45222U 20012AW  20253.25001157  .00035664  00000-0  24560-2 0  9996
2 45222  53.0004  18.3632 0001332 108.4009  54.1193 15.05557453  1759
STARLINK-1212           
1 45223U 20012AX  20253.25001157  .00045003  00000-0  30908-2 0  9998
2 45223  53.0016  18.3614 0001194 121.5341 274.9512 15.05548632  1761
STARLINK-1214           
1 45224U 20012AY  20253.25001157  .00039516  00000-0  27183-2 0  9992
2 45224  52.9979  18.3753 0001335 117.0786 351.4578 15.05548942 31919
STARLINK-1215           
1 45225U 20012AZ  20253.25001157  .00042770  00000-0  29374-2 0  9993
2 45225  52.9999  18.3608 0001155 114.3498 192.1626 15.05572131  1751
STARLINK-1217           
1 45226U 20012BA  20253.25001157  .00051944  00000-0  35594-2 0  9998
2 45226  52.9993  18.3607 0001505 116.9058 153.5772 15.05565591  1759
STARLINK-1221           
1 45227U 20012BB  20253.25001157  .00036647  00000-0  25235-2 0  9993
2 45227  53.0003  18.3636 0001436 119.2019  25.3302 15.05547354 31869
STARLINK-1222           
1 45228U 20012BC  20253.25001157  .00038048  00000-0  26172-2 0  9992
2 45228  53.0002  18.3656 0001310 107.1232  19.3514 15.05569292 31903
STARLINK-1226           
1 45229U 20012BD  20253.25001157  .00044039  00000-0  30245-2 0  9996
2 45229  53.0016  18.3614 0001483 114.7870 209.7009 15.05559311 31901
STARLINK-1227           
1 45230U 20012BE  20253.25001157  .00044991  00000-0  30887-2 0  9997
2 45230  53.0009  18.3617 0001164  94.9412 247.4676 15.05563813  1756
STARLINK-1229           
1 45231U 20012BF  20253.25001157  .00037899  00000-0  26079-2 0  9995
2 45231  53.0014  18.3604 0001398 110.7902 141.7161 15.05557352  1755
STARLINK-1235           
1 45232U 20012BG  20253.25001157  .00052615  00000-0  36045-2 0  9993
2 45232  52.9989  18.3622 0001426 112.1196 176.3371 15.05568719  1754
STARLINK-1238           
1 45233U 20012BH  20253.25001157  .00037806  00000-0  26013-2 0  9993
2 45233  52.9975  38.3743 0001381 111.6044 318.7408 15.05560855 31616
STARLINK-1243           
1 45234U 20012BJ  20253.25001157  .00013429  00000-0  93909-3 0  9998
2 45234  53.0016  58.3653 0001221 100.7710 129.4266 15.05578869  1754
STARLINK-1246           
1 45235U 20012BK  20253.25001157  .00013840  00000-0  96751-3 0  9994
2 45235  53.0011  58.3644 0001365 104.6924 197.5546 15.05566680  1754
STARLINK-1247           
1 45236U 20012BL  20253.25001157  .00045450  00000-0  31211-2 0  9996
2 45236  53.0018  18.3603 0001289 112.6032 247.8709 15.05548494 31900
STARLINK-1270           
1 45237U 20012BM  20253.25001157  .00036525  00000-0  25152-2 0  9997
2 45237  53.0010  18.3609 0001031 118.3210 116.2168 15.05547518 31897
STARLINK-1279           
1 45360U 20019A   20253.25001157  .00002819  00000-0  21254-3 0  9990
2 45360  52.9892 148.4143 0001546  77.2378 152.4082 15.05578767  1756
STARLINK-1301           
1 45361U 20019B   20253.25001157  .00024158  00000-0  16719-2 0  9990
2 45361  53.0001 158.3591 0001800  70.0587  95.5197 15.05571033  1757
STARLINK-1306           
1 45362U 20019C   20253.25001157  .00039475  00000-0  27143-2 0  9992
2 45362  52.9961 178.3857 0001554  79.3415 318.0415 15.05565996  1764
STARLINK-1313           
1 45364U 20019E   20253.58334491 -.00001484  00000-0 -82677-4 0  9996
2 45364  52.9932 146.8996 0001967  85.8937 169.4813 15.05588360 27620
STARLINK-1317           
1 45365U 20019F   20253.25001157  .00020676  00000-0  14346-2 0  9999
2 45365  52.9994 158.3689 0001502  85.2186 170.3382 15.05565975 27439
STARLINK-1262           
1 45366U 20019G   20253.25001157 -.00000836  00000-0 -38189-4 0  9991
2 45366  52.9989 178.3656 0001686  74.3899  35.0965 15.05575374  1769
STARLINK-1273           
1 45367U 20019H   20253.25001157  .00039624  00000-0  27257-2 0  9999
2 45367  52.9984 178.3650 0001437  68.2851 293.1419 15.05548916  1766
STARLINK-1276           
1 45368U 20019J   20253.25001157  .00043542  00000-0  29892-2 0  9991
2 45368  53.0005 178.3623 0001478  70.3159  75.0847 15.05579009 27175
STARLINK-1277           
1 45369U 20019K   20253.25001157  .00044051  00000-0  30261-2 0  9990
2 45369  53.0002 178.3632 0001695  71.4691  91.9523 15.05549367  1755
STARLINK-1281           
1 45370U 20019L   20253.25001157  .00044943  00000-0  30861-2 0  9998
2 45370  52.9997 178.3723 0001537  69.7346 147.6904 15.05556027 27156
STARLINK-1287           
1 45371U 20019M   20253.58334491  .00016333  00000-0  11381-2 0  9993
2 45371  52.9988 176.8701 0001420  69.4204 353.7153 15.05561365 27222
STARLINK-1288           
1 45372U 20019N   20253.25001157  .00040535  00000-0  27842-2 0  9998
2 45372  53.0000 178.3643 0001634  73.0099 270.3639 15.05593069 27164
STARLINK-1295           
1 45373U 20019P   20253.25001157  .00040359  00000-0  27729-2 0  9997
2 45373  52.9993 178.3662 0001547  64.8061   8.5794 15.05585136 27175
STARLINK-1300           
1 45374U 20019Q   20253.58334491  .00016574  00000-0  11541-2 0  9991
2 45374  52.9995 176.8709 0001429  84.7992  14.3426 15.05577580 27223
STARLINK-1302           
1 45375U 20019R   20253.25001157  .00039686  00000-0  27270-2 0  9991
2 45375  52.9988 178.3659 0001584  77.3047 302.0686 15.05588234  1762
STARLINK-1304           
1 45376U 20019S   20253.25001157  .00042740  00000-0  29361-2 0  9990
2 45376  53.0004 178.3676 0001845  73.1547 216.1938 15.05562636  1754
STARLINK-1305           
1 45377U 20019T   20253.25001157  .00042711  00000-0  29340-2 0  9996
2 45377  53.0012 178.3654 0001581  66.8077  60.6087 15.05564898  1753
STARLINK-1310           
1 45378U 20019U   20253.25001157  .00044871  00000-0  30811-2 0  9991
2 45378  53.0004 178.3648 0001541  64.9329 134.5114 15.05557420  1758
STARLINK-1319           
1 45379U 20019V   20253.58334491  .00016585  00000-0  11549-2 0  9996
2 45379  53.0002 176.8694 0001872  76.4100 112.7847 15.05575131 27223
STARLINK-1207           
1 45380U 20019W   20253.25001157  .00022231  00000-0  15402-2 0  9999
2 45380  52.9997 158.3648 0001745  64.7818  10.7735 15.05577978  1760
STARLINK-1258           
1 45381U 20019X   20253.25001157  .00019480  00000-0  13524-2 0  9995
2 45381  52.9994 158.3638 0001569  70.5347 311.0139 15.05580989  1764
